NORAD_CAT_ID,OBJECT_NAME,OBJECT_TYPE,EPOCH,MEAN_MOTION,ECCENTRICITY,INCLINATION,RA_OF_ASC_NODE,ARG_OF_PERICENTER,MEAN_ANOMALY,BSTAR,MEAN_MOTION_DOT,MEAN_MOTION_DDOT,TLE_LINE0,TLE_LINE1,TLE_LINE2,SEMIMAJOR_AXIS,PERIOD,APOGEE,PERIGEE,DECAYED
53419.0,STARLINK-4476,PAYLOAD,2024-01-21 08:42:45,15.08847664,0.0001599,53.2179,8.1629,108.7022,251.4143,8.3095e-05,1.035e-05,0.0,0 STARLINK-4476,1 53419U 22097AH  24021.36302173  .00001035  00000-0  83095-4 0  9994,2 53419  53.2179   8.1629 0001599 108.7022 251.4143 15.08847664 80660,6917.857,95.437,540.828,538.616,0.0
53419.0,STARLINK-4476,PAYLOAD,2024-01-22 03:47:22,15.08844084,0.0001534,53.2187,4.5895,112.8903,247.2251,5.7112e-05,6.21e-06,0.0,0 STARLINK-4476,1 53419U 22097AH  24022.15790361  .00000621  00000-0  57112-4 0  9993,2 53419  53.2187   4.5895 0001534 112.8903 247.2251 15.08844084 80786,6917.868,95.437,540.794,538.672,0.0
53419.0,STARLINK-4476,PAYLOAD,2024-01-22 05:22:46,15.08841788,0.0001537,53.2192,4.292,113.2446,246.8708,0.00013437,1.851e-05,0.0,0 STARLINK-4476,1 53419U 22097AH  24022.22414375  .00001851  00000-0  13437-3 0  9996,2 53419  53.2192   4.2920 0001537 113.2446 246.8708 15.08841788 81251,6917.875,95.437,540.803,538.677,0.0
53419.0,STARLINK-4476,PAYLOAD,2024-01-22 08:33:32,15.08848588,0.0001886,53.2195,3.6988,117.9648,242.1535,3.2795e-05,2.34e-06,0.0,0 STARLINK-4476,1 53419U 22097AH  24022.35662112  .00000234  00000-0  32795-4 0  9997,2 53419  53.2195   3.6988 0001886 117.9648 242.1535 15.08848588 81277,6917.854,95.437,541.024,538.414,0.0
53419.0,STARLINK-4476,PAYLOAD,2024-01-23 03:38:10,15.0883861,0.0001877,53.2191,0.1282,118.1585,241.9597,2.3661e-05,8.8e-07,0.0,0 STARLINK-4476,1 53419U 22097AH  24023.15150750  .00000088  00000-0  23661-4 0  9995,2 53419  53.2191   0.1282 0001877 118.1585 241.9597 15.08838610 80937,6917.885,95.438,541.048,538.451,0.0
53419.0,STARLINK-4476,PAYLOAD,2024-01-23 05:13:33,15.08844149,0.000165,53.2194,359.8312,106.1504,253.967,-3.2753e-05,-8.09e-06,0.0,0 STARLINK-4476,1 53419U 22097AH  24023.21774606 -.00000809  00000-0 -32753-4 0  9999,2 53419  53.2194 359.8312 0001650 106.1504 253.9670 15.08844149 81407,6917.868,95.437,540.874,538.591,0.0
53419.0,STARLINK-4476,PAYLOAD,2024-01-24 03:28:57,15.08844889,0.0001948,53.2196,355.6741,121.8376,238.2806,-2.2304e-05,-6.43e-06,0.0,0 STARLINK-4476,1 53419U 22097AH  24024.14510678 -.00000643  00000-0 -22304-4 0  9996,2 53419  53.2196 355.6741 0001948 121.8376 238.2806 15.08844889 81543,6917.865,95.437,541.078,538.383,0.0
53419.0,STARLINK-4476,PAYLOAD,2024-01-25 03:19:44,15.08839551,0.0001646,53.2192,351.2203,115.1125,245.0038,3.5142e-05,2.71e-06,0.0,0 STARLINK-4476,1 53419U 22097AH  24025.13871220  .00000271  00000-0  35142-4 0  9998,2 53419  53.2192 351.2203 0001646 115.1125 245.0038 15.08839551 81236,6917.882,95.438,540.885,538.608,0.0
53419.0,STARLINK-4476,PAYLOAD,2024-01-26 04:45:55,15.08821755,0.0001526,53.2187,346.4594,97.575,262.5416,0.00032802,4.934e-05,0.0,0 STARLINK-4476,1 53419U 22097AH  24026.19855881  .00004934  00000-0  32802-3 0  9999,2 53419  53.2187 346.4594 0001526  97.5750 262.5416 15.08821755 81391,6917.936,95.439,540.857,538.745,0.0
53419.0,STARLINK-4476,PAYLOAD,2024-01-27 04:36:43,15.0879954,0.0001911,53.2198,342.0015,73.3724,286.7478,0.00068394,0.00010602,0.0,0 STARLINK-4476,1 53419U 22097AH  24027.19216706  .00010602  00000-0  68394-3 0  9991,2 53419  53.2198 342.0015 0001911  73.3724 286.7478 15.08799540 81543,6918.004,95.44,541.191,538.547,0.0
53419.0,STARLINK-4476,PAYLOAD,2024-01-27 20:30:33,15.08842232,0.0001895,53.2198,339.0288,67.5254,292.5938,8.7838e-05,1.11e-05,0.0,0 STARLINK-4476,1 53419U 22097AH  24027.85455816  .00001110  00000-0  87838-4 0  9990,2 53419  53.2198 339.0288 0001895  67.5254 292.5938 15.08842232 81649,6917.874,95.437,541.05,538.428,0.0
53419.0,STARLINK-4476,PAYLOAD,2024-01-28 06:02:51,15.08849853,0.0001489,53.2187,337.2393,91.1379,268.9784,0.00010306,1.353e-05,0.0,0 STARLINK-4476,1 53419U 22097AH  24028.25198947  .00001353  00000-0  10306-3 0  9998,2 53419  53.2187 337.2393 0001489  91.1379 268.9784 15.08849853 81703,6917.85,95.437,540.745,538.685,0.0
53419.0,STARLINK-4476,PAYLOAD,2024-01-29 02:42:53,15.08845295,0.0001744,53.2206,333.3669,94.804,265.3152,2.5476e-05,1.17e-06,0.0,0 STARLINK-4476,1 53419U 22097AH  24029.11311443  .00000117  00000-0  25476-4 0  9994,2 53419  53.2206 333.3669 0001744  94.8040 265.3152 15.08845295 81837,6917.864,95.437,540.936,538.523,0.0
53419.0,STARLINK-4476,PAYLOAD,2024-01-29 20:12:07,15.08843979,0.0001606,53.2209,330.1037,96.7275,263.39,3.0467e-05,1.97e-06,0.0,0 STARLINK-4476,1 53419U 22097AH  24029.84175550  .00000197  00000-0  30467-4 0  9995,2 53419  53.2209 330.1037 0001606  96.7275 263.3900 15.08843979 82402,6917.868,95.437,540.844,538.622,0.0
53419.0,STARLINK-4476,PAYLOAD,2024-01-30 02:33:39,15.08845783,0.0001611,53.2208,328.916,92.757,267.3607,6.3726e-05,7.26e-06,0.0,0 STARLINK-4476,1 53419U 22097AH  24030.10671296  .00000726  00000-0  63726-4 0  9996,2 53419  53.2208 328.9160 0001611  92.7570 267.3607 15.08845783 82440,6917.863,95.437,540.842,538.613,0.0
53419.0,STARLINK-4476,PAYLOAD,2024-01-30 23:13:41,15.08838229,0.0001686,53.2206,325.0546,110.8848,249.2325,1.4173e-05,-6.2e-07,0.0,0 STARLINK-4476,1 53419U 22097AH  24030.96783819 -.00000062  00000-0  14173-4 0  9991,2 53419  53.2206 325.0546 0001686 110.8848 249.2325 15.08838229 82573,6917.886,95.438,540.917,538.584,0.0
53419.0,STARLINK-4476,PAYLOAD,2024-01-31 02:24:27,15.08843606,0.0001637,53.2202,324.4581,106.3309,253.7863,1.8098e-05,0.0,0.0,0 STARLINK-4476,1 53419U 22097AH  24031.10031469  .00000000  00000-0  18098-4 0  9996,2 53419  53.2202 324.4581 0001637 106.3309 253.7863 15.08843606 82133,6917.869,95.437,540.867,538.602,0.0
53419.0,STARLINK-4476,PAYLOAD,2024-01-31 19:53:42,15.08840985,0.0001773,53.2197,321.1823,98.6031,261.5162,-4.1114e-05,-9.42e-06,0.0,0 STARLINK-4476,1 53419U 22097AH  24031.82895933 -.00000942  00000-0 -41114-4 0  9991,2 53419  53.2197 321.1823 0001773  98.6031 261.5162 15.08840985 82243,6917.877,95.437,540.969,538.516,0.0
53419.0,STARLINK-4476,PAYLOAD,2024-02-01 00:39:51,15.088245,0.0001934,53.22,320.2901,100.7622,259.3588,0.00015513,2.181e-05,0.0,0 STARLINK-4476,1 53419U 22097AH  24032.02768337  .00002181  00000-0  15513-3 0  9999,2 53419  53.2200 320.2901 0001934 100.7622 259.3588 15.08824500 82270,6917.928,95.439,541.131,538.455,0.0
53419.0,STARLINK-4476,PAYLOAD,2024-02-02 00:30:38,15.08838766,0.00017,53.2195,315.8295,107.1529,252.965,4.1903e-05,3.79e-06,0.0,0 STARLINK-4476,1 53419U 22097AH  24033.02127902  .00000379  00000-0  41903-4 0  9997,2 53419  53.2195 315.8295 0001700 107.1529 252.9650 15.08838766 82422,6917.884,95.438,540.925,538.573,0.0
53419.0,STARLINK-4476,PAYLOAD,2024-02-03 03:32:12,15.08837162,0.000132,53.2177,310.7741,90.9241,269.1903,5.0189e-05,5.11e-06,0.0,0 STARLINK-4476,1 53419U 22097AH  24034.14736242  .00000511  00000-0  50189-4 0  9998,2 53419  53.2177 310.7741 0001320  90.9241 269.1903 15.08837162 82598,6917.889,95.438,540.667,538.841,0.0
53419.0,STARLINK-4476,PAYLOAD,2024-02-03 22:36:49,15.08838847,0.0001357,53.218,307.2064,86.9142,273.2006,6.8562e-05,8.03e-06,0.0,0 STARLINK-4476,1 53419U 22097AH  24034.94224161  .00000803  00000-0  68562-4 0  9996,2 53419  53.2180 307.2064 0001357  86.9142 273.2006 15.08838847 83172,6917.884,95.438,540.688,538.81,0.0
53419.0,STARLINK-4476,PAYLOAD,2024-02-04 03:22:58,15.08847314,0.0001476,53.2185,306.3122,83.9974,276.1186,0.00013078,1.794e-05,0.0,0 STARLINK-4476,1 53419U 22097AH  24035.14095453  .00001794  00000-0  13078-3 0  9990,2 53419  53.2185 306.3122 0001476  83.9974 276.1186 15.08847314 82746,6917.858,95.437,540.744,538.702,0.0
53419.0,STARLINK-4476,PAYLOAD,2024-02-04 17:41:27,15.08834631,0.0001262,53.2174,303.6347,106.9027,253.2103,-4.7053e-06,-3.63e-06,0.0,0 STARLINK-4476,1 53419U 22097AH  24035.73712674 -.00000363  00000-0 -47053-5 0  9991,2 53419  53.2174 303.6347 0001262 106.9027 253.2103 15.08834631 82834,6917.897,95.438,540.635,538.889,0.0
53419.0,STARLINK-4476,PAYLOAD,2024-02-04 22:27:36,15.0883861,0.0001621,53.2177,302.7452,103.8686,256.2487,2.4529e-05,1.02e-06,0.0,0 STARLINK-4476,1 53419U 22097AH  24035.93584375  .00000102  00000-0  24529-4 0  9999,2 53419  53.2177 302.7452 0001621 103.8686 256.2487 15.08838610 83324,6917.885,95.438,540.871,538.628,0.0
53419.0,STARLINK-4476,PAYLOAD,2024-02-05 00:03:00,15.08837691,0.0001349,53.2172,302.4486,94.913,265.2017,1.8906e-05,1.3e-07,0.0,0 STARLINK-4476,1 53419U 22097AH  24036.00208476  .00000013  00000-0  18906-4 0  9996,2 53419  53.2172 302.4486 0001349  94.9130 265.2017 15.08837691 83332,6917.887,95.438,540.686,538.819,0.0
53419.0,STARLINK-4476,PAYLOAD,2024-02-05 22:18:23,15.08852115,0.0001474,53.2174,298.2848,122.4973,237.6162,-8.3258e-06,-4.21e-06,0.0,0 STARLINK-4476,1 53419U 22097AH  24036.92943540 -.00000421  00000-0 -83258-5 0  9993,2 53419  53.2174 298.2848 0001474 122.4973 237.6162 15.08852115 83476,6917.843,95.437,540.728,538.689,0.0
53419.0,STARLINK-4476,PAYLOAD,2024-02-06 03:04:32,15.08857093,0.000142,53.218,297.392,97.8017,262.3137,4.2666e-05,3.91e-06,0.0,0 STARLINK-4476,1 53419U 22097AH  24037.12815046  .00000391  00000-0  42666-4 0  9996,2 53419  53.2180 297.3920 0001420  97.8017 262.3137 15.08857093 83049,6917.828,95.436,540.675,538.711,0.0
53419.0,STARLINK-4476,PAYLOAD,2024-02-06 22:09:10,15.08845192,0.0001795,53.2176,293.8164,131.1628,228.9519,-9.4567e-06,-4.39e-06,0.0,0 STARLINK-4476,1 53419U 22097AH  24037.92303811 -.00000439  00000-0 -94567-5 0  9999,2 53419  53.2176 293.8164 0001795 131.1628 228.9519 15.08845192 83623,6917.865,95.437,540.971,538.488,0.0
53419.0,STARLINK-4476,PAYLOAD,2024-02-06 23:44:33,15.0884351,0.0001311,53.2177,293.5215,113.7784,246.3346,1.2159e-05,-9.4e-07,0.0,0 STARLINK-4476,1 53419U 22097AH  24037.98927874 -.00000094  00000-0  12159-4 0  9998,2 53419  53.2177 293.5215 0001311 113.7784 246.3346 15.08843510 83175,6917.87,95.437,540.642,538.828,0.0
